STARLINK-31585          
1 59608U 24080H   26068.26676644 -.00007743  00000+0 -27197-3 0  9996
2 59608  43.0022  36.3479 0003717 254.4766 105.5675 15.27590267104520
NUSAT-50 (NANCY ROMAN)  
1 60493U 24149AB  26068.80227738  .00012094  00000+0  42252-3 0  9994
2 60493  97.3817 150.7693 0002523 238.0469 122.0527 15.29713355 86930
